ORBCOMM FM37            
1 33064U 08031E   24172.62985135  .00001529  00000+0  24547-3 0  9994
2 33064  48.4411 258.6575 0006717 269.5821 231.2343 14.76686564860557
ORBCOMM FM40            
1 33065U 08031F   24172.58873022  .00002017  00000+0  30481-3 0  9998
2 33065  48.4421 247.8199 0008094 278.1921 223.5408 14.78064748860594
VESSELSAT 1             
1 37840U 11058C   24172.23070303  .00000361  00000+0  52654-4 0  9996
2 37840  19.9610 123.7849 0013765 165.0034 195.0780 14.11166968655116
ORBCOMM FM109           
1 40086U 14040A   24172.38625203  .00001011  00000+0  26122-3 0  9990
2 40086  47.0044 283.3051 0000912 110.8005 249.2977 14.56752131528288
ORBCOMM FM107           
1 40087U 14040B   24172.35161952  .00001059  00000+0  27166-3 0  9995
2 40087  47.0062 284.4375 0000535  12.4467 347.6431 14.56762516528354
ORBCOMM FM106           
1 40088U 14040C   24172.39332809  .00001122  00000+0  22965-3 0  9994
2 40088  47.0602 134.3422 0017516 189.2845 170.7723 14.67198795530302
ORBCOMM FM111           
1 40089U 14040D   24172.55288029  .00001082  00000+0  15993-3 0  9995
2 40089  47.0065  29.7191 0033504 264.6040  95.1032 14.82064928536504
ORBCOMM FM104           
1 40090U 14040E   24172.43348249  .00000711  00000+0  20109-3 0  9998
2 40090  47.0066 313.4256 0016871 349.7869  10.2671 14.55239072527909
